NORAD_CAT_ID,OBJECT_NAME,OBJECT_TYPE,EPOCH,MEAN_MOTION,ECCENTRICITY,INCLINATION,RA_OF_ASC_NODE,ARG_OF_PERICENTER,MEAN_ANOMALY,BSTAR,MEAN_MOTION_DOT,MEAN_MOTION_DDOT,TLE_LINE0,TLE_LINE1,TLE_LINE2,SEMIMAJOR_AXIS,PERIOD,APOGEE,PERIGEE,DECAYED
49437.0,STARLINK-3130,PAYLOAD,2021-12-30 22:25:40,15.7321929,0.0002032,53.2164,258.4373,44.1872,315.931,6.7932e-05,8.931e-05,0.0,0 STARLINK-3130,1 49437U 21104AF  21364.93449678  .00008931  00000-0  67932-4 0  9993,2 49437  53.2164 258.4373 0002032  44.1872 315.9310 15.73219290  7665,6727.84,91.532,351.07199999999995,348.338,0.0
49437.0,STARLINK-3130,PAYLOAD,2021-12-31 12:00:00,15.73159595,0.0002189,53.2163,255.6392,30.5406,294.266,0.00011175,0.00015064,0.0,0 STARLINK-3130,1 49437U 21104AF  21365.50001157  .00015064  00000-0  11175-3 0  9995,2 49437  53.2163 255.6392 0002189  30.5406 294.2660 15.73159595  8826,6728.01,91.536,351.348,348.403,0.0
49437.0,STARLINK-3130,PAYLOAD,2021-12-31 14:00:01,15.73142267,0.0002193,53.2161,255.2265,32.4709,44.562,0.00042544,0.00059366,0.0,0 STARLINK-3130,1 49437U 21104AF  21365.58334491  .00059366  00000-0  42544-3 0  9990,2 49437  53.2161 255.2265 0002193  32.4709  44.5620 15.73142267  3691,6728.06,91.537,351.4,348.449,0.0
49437.0,STARLINK-3130,PAYLOAD,2021-12-31 21:17:52,15.73203728,0.000131,53.2153,253.7175,64.9801,295.1356,3.8931e-05,4.848e-05,0.0,0 STARLINK-3130,1 49437U 21104AF  21365.88741725  .00004848  00000-0  38931-4 0  9996,2 49437  53.2153 253.7175 0001310  64.9801 295.1356 15.73203728  7816,6727.885,91.533,350.631,348.86800000000005,0.0
49437.0,STARLINK-3130,PAYLOAD,2022-01-01 12:00:00,15.73190679,0.0002236,53.2155,250.691,34.7013,196.8167,0.00043421,0.00060739,0.0,0 STARLINK-3130,1 49437U 21104AF  22001.50001157  .00060739  00000-0  43421-3 0  9991,2 49437  53.2155 250.6910 0002236  34.7013 196.8167 15.73190679  8985,6727.922,91.534,351.291,348.282,0.0
49437.0,STARLINK-3130,PAYLOAD,2022-01-01 14:00:01,15.73190111,0.0002189,53.2154,250.2787,35.9088,307.9105,0.00055409,0.00077837,0.0,0 STARLINK-3130,1 49437U 21104AF  22001.58335648  .00077837  00000-0  55409-3 0  9990,2 49437  53.2154 250.2787 0002189  35.9088 307.9105 15.73190111  3695,6727.9230000000025,91.534,351.261,348.316,0.0
49437.0,STARLINK-3130,PAYLOAD,2022-01-01 22:00:00,15.73266492,0.0002333,53.2154,248.6307,32.9293,39.759,-0.00053105,-0.00074715,0.0,0 STARLINK-3130,1 49437U 21104AF  22001.91667824 -.00074715  00000-0 -53105-3 0  9996,2 49437  53.2154 248.6307 0002333  32.9293  39.7590 15.73266492  3683,6727.706,91.529,351.14,348.001,0.0
49437.0,STARLINK-3130,PAYLOAD,2022-01-02 06:00:00,15.73218955,0.0002297,53.2153,246.9812,28.4146,133.2736,6.5096e-05,8.532e-05,0.0,0 STARLINK-3130,1 49437U 21104AF  22002.25001157  .00008532  00000-0  65096-4 0  9990,2 49437  53.2153 246.9812 0002297  28.4146 133.2736 15.73218955  9106,6727.840999999999,91.532,351.25199999999984,348.161,0.0
49437.0,STARLINK-3130,PAYLOAD,2022-01-02 14:00:01,15.73231376,0.0002066,53.2154,245.3298,29.9562,220.6823,-8.866e-05,-0.00013063,0.0,0 STARLINK-3130,1 49437U 21104AF  22002.58334491 -.00013063  00000-0 -88660-4 0  9995,2 49437  53.2154 245.3298 0002066  29.9562 220.6823 15.73231376  3698,6727.806,91.531,351.061,348.281,0.0
49437.0,STARLINK-3130,PAYLOAD,2022-01-02 22:00:00,15.73192578,0.0002258,53.2153,243.682,26.97300000000001,312.6279,1.2281e-05,1.102e-05,0.0,0 STARLINK-3130,1 49437U 21104AF  22002.91667824  .00001102  00000-0  12281-4 0  9996,2 49437  53.2153 243.6820 0002258  26.9730 312.6279 15.73192578  3693,6727.916,91.534,351.3,348.26199999999994,0.0
49437.0,STARLINK-3130,PAYLOAD,2022-01-03 14:00:01,15.73165649,0.0001902,53.2145,240.3812,23.0876,134.3928,0.00034671,0.00048248,0.0,0 STARLINK-3130,1 49437U 21104AF  22003.58334491  .00048248  00000-0  34671-3 0  9999,2 49437  53.2145 240.3812 0001902  23.0876 134.3928 15.73165649  3692,6727.993,91.535,351.13800000000015,348.57800000000015,0.0
49437.0,STARLINK-3130,PAYLOAD,2022-01-03 22:00:00,15.73194262,0.0002151,53.2146,238.7338,22.2881,224.0953,0.00011185,0.00015102,0.0,0 STARLINK-3130,1 49437U 21104AF  22003.91667824  .00015102  00000-0  11185-3 0  9993,2 49437  53.2146 238.7338 0002151  22.2881 224.0953 15.73194262  3699,6727.9119999999975,91.534,351.224,348.329,0.0
49437.0,STARLINK-3130,PAYLOAD,2022-01-04 12:00:00,15.73162308,0.0002114,53.2148,235.8452,28.4904,283.5357,0.00023496,0.0003243,0.0,0 STARLINK-3130,1 49437U 21104AF  22004.50001157  .00032430  00000-0  23496-3 0  9991,2 49437  53.2148 235.8452 0002114  28.4904 283.5357 15.73162308  9453,6728.003000000002,91.535,351.29,348.445,0.0
49437.0,STARLINK-3130,PAYLOAD,2022-01-04 14:00:01,15.73160588,0.0002135,53.215,235.4325,31.5891,32.6601,0.00031762,0.00044117,0.0,0 STARLINK-3130,1 49437U 21104AF  22004.58334491  .00044117  00000-0  31762-3 0  9999,2 49437  53.2150 235.4325 0002135  31.5891  32.6601 15.73160588  3664,6728.0080000000025,91.535,351.309,348.436,0.0
49437.0,STARLINK-3130,PAYLOAD,2022-01-04 21:21:07,15.73201898,0.0001675999999999,53.2162,233.9155,25.2696,334.8406,2.7929e-05,3.301e-05,0.0,0 STARLINK-3130,1 49437U 21104AF  22004.88966981  .00003301  00000-0  27929-4 0  9998,2 49437  53.2162 233.9155 0001676  25.2696 334.8406 15.73201898  8444,6727.89,91.533,350.88199999999995,348.62699999999984,0.0
49437.0,STARLINK-3130,PAYLOAD,2022-01-05 14:00:01,15.73227175,0.0002099,53.2145,230.484,31.5674,299.4306,-0.00029203,-0.00041456,0.0,0 STARLINK-3130,1 49437U 21104AF  22005.58334491 -.00041456  00000-0 -29203-3 0  9992,2 49437  53.2145 230.4840 0002099  31.5674 299.4306 15.73227175  9626,6727.818,91.532,351.095,348.271,0.0
49437.0,STARLINK-3130,PAYLOAD,2022-01-05 22:00:00,15.73170462,0.0002276,53.2146,228.8365,26.1532,33.7961,4.903e-05,6.257e-05,0.0,0 STARLINK-3130,1 49437U 21104AF  22005.91667824  .00006257  00000-0  49030-4 0  9997,2 49437  53.2146 228.8365 0002276  26.1532  33.7961 15.73170462  3693,6727.979,91.535,351.376,348.31300000000016,0.0
49437.0,STARLINK-3130,PAYLOAD,2022-01-06 14:00:01,15.7318702,0.0002145,53.2152,225.5352,29.904,207.8529,0.00030324,0.00042129,0.0,0 STARLINK-3130,1 49437U 21104AF  22006.58334491  .00042129  00000-0  30324-3 0  9995,2 49437  53.2152 225.5352 0002145  29.9040 207.8529 15.73187020  9788,6727.932,91.534,351.24,348.35400000000016,0.0
49437.0,STARLINK-3130,PAYLOAD,2022-01-06 22:00:00,15.73205151,0.0002449,53.2152,223.8877,28.6013,298.0883,7.710800000000001e-05,0.00010216,0.0,0 STARLINK-3130,1 49437U 21104AF  22006.91667824  .00010216  00000-0  77108-4 0  9995,2 49437  53.2152 223.8877 0002449  28.6013 298.0883 15.73205151  3701,6727.88,91.533,351.39300000000014,348.098,0.0
49437.0,STARLINK-3130,PAYLOAD,2022-01-07 06:00:00,15.73236483,0.0002361,53.2148,222.2372,28.0687,27.559,-0.00013228,-0.00019176,0.0,0 STARLINK-3130,1 49437U 21104AF  22007.25001157 -.00019176  00000-0 -13228-3 0  9992,2 49437  53.2148 222.2372 0002361  28.0687  27.5590 15.73236483  9880,6727.791,91.531,351.245,348.0680000000001,0.0
49437.0,STARLINK-3130,PAYLOAD,2022-01-07 14:00:01,15.73236813,0.0002166,53.2152,220.5867,32.0726,112.5153,0.00012801,0.00017411,0.0,0 STARLINK-3130,1 49437U 21104AF  22007.58334491  .00017411  00000-0  12801-3 0  9992,2 49437  53.2152 220.5867 0002166  32.0726 112.5153 15.73236813  3664,6727.79,91.531,351.112,348.1980000000001,0.0
49437.0,STARLINK-3130,PAYLOAD,2022-01-07 22:00:00,15.73223526,0.0002392,53.2153,218.9392,25.4555,208.1203,-0.0003591,-0.00050774,0.0,0 STARLINK-3130,1 49437U 21104AF  22007.91667824 -.00050774  00000-0 -35910-3 0  9995,2 49437  53.2153 218.9392 0002392  25.4555 208.1203 15.73223526  3661,6727.828,91.532,351.302,348.084,0.0
49437.0,STARLINK-3130,PAYLOAD,2022-01-08 14:00:01,15.73204931,0.0002409,53.2176,215.6262,32.3082,18.96,-1.9963e-06,-9.02e-06,0.0,0 STARLINK-3130,1 49437U 21104AF  22008.58334491 -.00000902  00000-0 -19963-5 0  9990,2 49437  53.2176 215.6262 0002409  32.3082  18.9600 15.73204931 10099,6727.880999999999,91.533,351.367,348.125,0.0
49437.0,STARLINK-3130,PAYLOAD,2022-01-08 22:00:00,15.73174392,0.0002443,53.216,213.9903,21.8749,118.5499,0.00021511,0.00029644,0.0,0 STARLINK-3130,1 49437U 21104AF  22008.91667824  .00029644  00000-0  21511-3 0  9998,2 49437  53.2160 213.9903 0002443  21.8749 118.5499 15.73174392 10142,6727.968000000003,91.535,351.477,348.19,0.0
49437.0,STARLINK-3130,PAYLOAD,2022-01-09 14:00:01,15.73235695,0.0002194,53.2157,210.6895,24.2462,294.0431,0.00024004,0.00033254,0.0,0 STARLINK-3130,1 49437U 21104AF  22009.58334491  .00033254  00000-0  24004-3 0  9995,2 49437  53.2157 210.6895 0002194  24.2462 294.0431 15.73235695 10256,6727.793000000002,91.531,351.134,348.182,0.0
49437.0,STARLINK-3130,PAYLOAD,2022-01-09 22:00:00,15.73259411,0.0002415,53.2158,209.042,19.3889,27.8905,-0.00033804,-0.00047922,0.0,0 STARLINK-3130,1 49437U 21104AF  22009.91667824 -.00047922  00000-0 -33804-3 0  9998,2 49437  53.2158 209.0420 0002415  19.3889  27.8905 15.73259411  3686,6727.726,91.53,351.216,347.966,0.0
49437.0,STARLINK-3130,PAYLOAD,2022-01-10 06:00:00,15.73233024,0.0002303,53.2159,207.391,18.1212,118.1234,-0.00024627,-0.00035093,0.0,0 STARLINK-3130,1 49437U 21104AF  22010.25001157 -.00035093  00000-0 -24627-3 0  9997,2 49437  53.2159 207.3910 0002303  18.1212 118.1234 15.73233024 10358,6727.801,91.531,351.215,348.117,0.0
49437.0,STARLINK-3130,PAYLOAD,2022-01-10 14:00:01,15.73223047,0.0002328,53.2163,205.7409,24.8855,200.3111,-0.0006306,-0.00088299,0.0,0 STARLINK-3130,1 49437U 21104AF  22010.58334491 -.00088299  00000-0 -63060-3 0  9993,2 49437  53.2163 205.7409 0002328  24.8855 200.3111 15.73223047  3660,6727.829000000002,91.532,351.261,348.12800000000016,0.0
49437.0,STARLINK-3130,PAYLOAD,2022-01-10 22:00:00,15.73139248,0.0002696,53.2162,204.0934,25.6582,288.4597,0.00036737,0.00051123,0.0,0 STARLINK-3130,1 49437U 21104AF  22010.91667824  .00051123  00000-0  36737-3 0  9994,2 49437  53.2162 204.0934 0002696  25.6582 288.4597 15.73139248  3695,6728.068,91.537,351.747,348.119,0.0
